STARLINK-35962          
1 66518U 25265C   25331.16670139 -.01320964  00000+0 -51181-2 0  9997
2 66518  43.0011 147.5393 0001922 268.7880  41.7244 15.88803000  2492
STARLINK-35931          
1 66519U 25265D   25331.16670139 -.01331276  00000+0 -51526-2 0  9999
2 66519  43.0012 147.5337 0001937 270.5567  42.0646 15.88844515  2497
STARLINK-35952          
1 66520U 25265E   25331.16670139 -.01332937  00000+0 -51502-2 0  9990
2 66520  43.0011 147.5283 0001911 273.0851  41.6664 15.88881846  2497
STARLINK-35915          
1 66521U 25265F   25331.16670139 -.01330912  00000+0 -51312-2 0  9991
2 66521  43.0011 147.5240 0001918 268.2008  48.1846 15.88920454  2491
STARLINK-35946          
1 66522U 25265G   25331.16670139 -.01270533  00000+0 -48773-2 0  9991
2 66522  43.0011 147.5185 0002117 274.8675  43.8196 15.88881489  2499
STARLINK-35969          
1 66523U 25265H   25331.16670139 -.01357675  00000+0 -52249-2 0  9998
2 66523  43.0013 147.5132 0001867 272.1512  48.5226 15.89011030  2490
STARLINK-35687          
1 66524U 25265J   25331.16670139 -.01361551  00000+0 -52312-2 0  9998
2 66524  43.0011 147.5077 0001987 269.6778  53.1407 15.89049328  2499
STARLINK-35975          
1 66525U 25265K   25331.16670139 -.01360340  00000+0 -52164-2 0  9999
2 66525  43.0012 147.5034 0001812 274.6525  50.0244 15.89087242  2499
STARLINK-35932          
1 66526U 25265L   25331.16670139 -.01370769  00000+0 -52504-2 0  9994
2 66526  43.0012 147.4981 0001905 273.4018  53.3804 15.89129597  2383
STARLINK-35935          
1 66527U 25265M   25331.16670139 -.01378569  00000+0 -52730-2 0  9992
2 66527  43.0013 147.4930 0001965 271.4062  57.5063 15.89171620  2491
STARLINK-35928          
1 66528U 25265N   25331.16670139 -.01384586  00000+0 -52887-2 0  9992
2 66528  43.0014 147.4875 0001918 271.9203  59.0849 15.89211432  2496
STARLINK-35933          
1 66529U 25265P   25331.16670139 -.01396675  00000+0 -53292-2 0  9996
2 66529  43.0014 147.4818 0001954 270.5006  62.7026 15.89256733  2491
